BSAT-3C (JCSAT-110R)    
1 37776U 11041B   21331.60743906 -.00000334  00000+0  00000+0 0  9991
2 37776   0.0399  77.2553 0000227 291.0595  27.0617  1.00268819 33806
PAKSAT-1R               
1 37779U 11042A   21331.49630100  .00000170  00000+0  00000+0 0  9990
2 37779   0.0057 130.4856 0002827 166.9070 345.9268  1.00268860 37808
CHINASAT 1A (ZX 1A)     
1 37804U 11047A   21331.59632793 -.00000321  00000+0  00000+0 0  9994
2 37804   0.0422  96.9166 0002775 208.7935 105.5608  1.00270827 10681
SES-2                   
1 37809U 11049A   21331.51242699 -.00000179  00000+0  00000+0 0  9996
2 37809   0.0114 327.2869 0003271 290.7049 266.1469  1.00271092 37293
ARABSAT-5C              
1 37810U 11049B   21331.49263782  .00000140  00000+0  00000+0 0  9998
2 37810   0.0566 358.9672 0006272 215.5053  49.5068  1.00272931 37238
EUTELSAT 7 WEST A       
1 37816U 11051A   21331.55892373 -.00000043  00000+0  00000+0 0  9991
2 37816   0.0846  47.5581 0005775 175.1773  37.9043  1.00272674 37229
QUETZSAT 1              
1 37826U 11054A   21331.51859609 -.00000225  00000+0  00000+0 0  9998
2 37826   0.0134 344.7392 0002352 256.6474 294.9808  1.00272733 33229
INTELSAT 18 (IS-18)     
1 37834U 11056A   21331.61451632  .00000069  00000+0  00000+0 0  9999
2 37834   0.0283  34.5426 0001931 212.9670 220.4759  1.00272562 37144
EUTELSAT 16A            
1 37836U 11057A   21331.56363352  .00000120  00000+0  00000+0 0  9995
2 37836   0.0703  19.2960 0005181 233.6451  32.6705  1.00272659 29292
VIASAT-1                
1 37843U 11059A   21331.59647917 -.00000007  00000+0  00000+0 0  9995
2 37843   0.0195 300.7028 0002520 307.6493 278.0141  1.00272089 37601
ASIASAT 7               
1 37933U 11069A   21331.36785328 -.00000317  00000+0  00000+0 0  9994
2 37933   0.0536 127.8846 0001878  85.4220  91.1668  1.00270977 36780
BEIDOU 10               
1 37948U 11073A   21331.36472858 -.00000138  00000+0  00000+0 0  9997
2 37948  50.6884 291.6883 0077726 218.7995 140.8878  1.00256543 36732
LUCH 5A                 
1 37951U 11074B   21331.63085630 -.00000025  00000+0  00000+0 0  9995
2 37951   4.5130 101.7384 0001966 126.0527 233.2725  1.00276105 36510
NIGCOMSAT 1R            
1 38014U 11077A   21331.49717317  .00000161  00000+0  00000+0 0  9997
2 38014   0.0473 114.5697 0000460 300.0745 233.4764  1.00271745 36289
FENGYUN 2F              
1 38049U 12002A   21331.58282154 -.00000340  00000+0  00000+0 0  9990
2 38049   3.3009  81.1089 0003363  14.8381 292.6772  1.00279625 36217
WGS F4 (USA 233)        
1 38070U 12003A   21331.57341309 -.00000198  00000+0  00000+0 0  9993
2 38070   0.0146 314.1544 0000083 277.2835 130.0956  1.00267547 27474
SES-4                   
1 38087U 12007A   21331.41257142 -.00000151  00000+0  00000+0 0  9998
2 38087   0.0218  51.4090 0002386 191.4454 310.2268  1.00272982 35567
BEIDOU 11               
1 38091U 12008A   21331.14151978  .00000073  00000+0  00000+0 0  9996
2 38091   1.9101  71.1886 0004338 262.0647 202.7420  1.00270005 35809
MUOS-1                  
1 38093U 12009A   21331.57243036 -.00000110  00000+0  00000+0 0  9996
2 38093   2.7363  26.1709 0051628 355.2223 151.3921  1.00270375 35774
INTELSAT 22 (IS-22)     
1 38098U 12011A   21331.57896431 -.00000043  00000+0  00000+0 0  9992
2 38098   0.0119 331.8235 0002910 268.9458 106.4768  1.00271707 35140
APSTAR 7                
1 38107U 12013A   21331.57896431 -.00000085  00000+0  00000+0 0  9991
2 38107   0.0372 113.6098 0003218 146.6974  91.3535  1.00271243 35130
YAHSAT 1B               
1 38245U 12016A   21331.49821979  .00000143  00000+0  00000+0 0  9997
2 38245   0.0172 310.0802 0002159 324.6577  18.8577  1.00269054 28923
AEHF-2 (USA 235)        
1 38254U 12019A   21331.50770299 -.00000143  00000+0  00000+0 0  9991
2 38254   2.9354  58.8713 0003597 203.6764 252.6974  1.00272568 34183
JCSAT-13                
1 38331U 12023A   21331.60188212 -.00000340  00000+0  00000+0 0  9990
2 38331   0.0105 303.8684 0002273 301.1858 162.3520  1.00268112 34858
VINASAT-2               
1 38332U 12023B   21331.59632793 -.00000312  00000+0  00000+0 0  9996
2 38332   0.0099 324.4398 0002108 277.6048 171.2334  1.00272636 29983
NIMIQ 6                 
1 38342U 12026A   21331.50959720 -.00000157  00000+0  00000+0 0  9990
2 38342   0.0163 305.4695 0002693 298.0988 275.4588  1.00271591 34921
CHINASAT 2A (ZX 2A)     
1 38352U 12028A   21331.56785615 -.00000277  00000+0  00000+0 0  9992
2 38352   0.0423  95.8027 0003672 240.4105  33.1849  1.00273315 34701
INTELSAT 19 (IS-19)     
1 38356U 12030A   21331.60193637 -.00000040  00000+0  00000+0 0  9999
2 38356   0.0162 333.7605 0002660 253.4016 222.2985  1.00271650 33770
ECHOSTAR 17             
1 38551U 12035A   21331.46313897 -.00000058  00000+0  00000+0 0  9996
2 38551   0.0138 316.5933 0001867 284.6354 244.9935  1.00269150 34399
METEOSAT-10 (MSG-3)     
1 38552U 12035B   21331.27520262  .00000078  00000+0  00000+0 0  9993
2 38552   1.2883  26.1650 0002016 186.4958 322.2072  1.00277440 34186
SES-5                   
1 38652U 12036A   21331.56145307  .00000050  00000+0  00000+0 0  9990
2 38652   0.0556 295.0250 0002119 308.3816  30.4103  1.00271734 27822
TIANLIAN 1-03           
1 38730U 12040A   21331.56450571  .00000142  00000+0  00000+0 0  9996
2 38730   1.5075  94.0264 0002464 290.6277 265.6680  1.00274225 34312
INTELSAT 20 (IS-20)     
1 38740U 12043A   21331.43062561 -.00000008  00000+0  00000+0 0  9996
2 38740   0.0069 332.7130 0002665 209.0397 108.3379  1.00270689 34075
HYLAS 2                 
1 38741U 12043B   21331.34424191  .00000170  00000+0  00000+0 0  9997
2 38741   0.0156 333.2243 0001520 268.7127 339.5362  1.00269860 34097
INTELSAT 21 (IS-21)     
1 38749U 12045A   21331.53124507 -.00000268  00000+0  00000+0 0  9995
2 38749   0.0167 306.3607 0002086 297.4150 316.1675  1.00271799 33861
ASTRA 2F                
1 38778U 12051A   21331.49429498  .00000166  00000+0  00000+0 0  9992
2 38778   0.0523 229.6891 0004311   7.3808  35.7329  1.00272760 24456
GSAT-10                 
1 38779U 12051B   21331.57826988 -.00000149  00000+0  00000+0 0  9999
2 38779   0.0783 104.0426 0003729 146.8835 106.9919  1.00270346 33438
INTELSAT 23 (IS-23)     
1 38867U 12057A   21331.53468854 -.00000268  00000+0  00000+0 0  9995
2 38867   0.0156 272.5346 0001982 327.2245 326.4054  1.00269958 33279
BEIDOU 16               
1 38953U 12059A   21331.57723957 -.00000159  00000+0  00000+0 0  9994
2 38953   1.4900  84.3650 0010233 275.2183 359.0167  1.00272613 33376
LUCH 5B                 
1 38977U 12061A   21331.09146685 -.00000118  00000+0  00000+0 0  9992
2 38977   6.8565  64.0793 0002173 127.7527 251.0108  1.00271993 33509
YAMAL 300K              
1 38978U 12061B   21331.61678851  .00000088  00000+0  00000+0 0  9991
2 38978   0.0165 310.5966 0000642 162.8131 358.3635  1.00272276 32974
STAR ONE C3             
1 38991U 12062A   21331.51649204 -.00000232  00000+0  00000+0 0  9998
2 38991   0.0459 105.3781 0002753 156.8907 275.3458  1.00272272 33090
EUTELSAT 21B            
1 38992U 12062B   21331.49289948  .00000146  00000+0  00000+0 0  9994
2 38992   0.0705  19.7415 0002502 223.2676  22.6662  1.00272688 33160
ECHOSTAR 16             
1 39008U 12065A   21331.44741323 -.00000265  00000+0  00000+0 0  9994
2 39008   0.0143 316.6472 0001777 298.9367 270.5683  1.00268928 32951
CHINASAT 12 (ZX 12)     
1 39017U 12067A   21331.57341309 -.00000191  00000+0  00000+0 0  9998
2 39017   0.0355 111.9371 0002978 129.7464 118.9732  1.00271027 32834
EUTELSAT 70B            
1 39020U 12069A   21331.57896431 -.00000027  00000+0  00000+0 0  9993
2 39020   0.0623   2.0967 0007020 227.9326 115.6241  1.00270742 32830
YAMAL 402               
1 39022U 12070A   21331.33313332  .00000101  00000+0  00000+0 0  9997
2 39022   0.0224  35.9437 0002763 224.5458 340.8541  1.00274213 32926
SKYNET 5D               
1 39034U 12075A   21331.49926642  .00000115  00000+0  00000+0 0  9991
2 39034   0.0726   8.1818 0004060 239.9438  51.0109  1.00272040 32490
MEXSAT 3                
1 39035U 12075B   21331.59647999 -.00000009  00000+0  00000+0 0  9991
2 39035   0.0210  54.3692 0002823 192.9715 279.3539  1.00272446 32518
TDRS 11                 
1 39070U 13004A   21331.61921966  .00000092  00000+0  00000+0 0  9996
2 39070   3.1371 340.8592 0002556  70.0675  64.3136  1.00272798 30024
AMAZONAS 3              
1 39078U 13006A   21331.52958299 -.00000266  00000+0  00000+0 0  9999
2 39078   0.0440 135.7395 0004954 104.6370 315.9785  1.00271245 28238
AZERSPACE 1             
1 39079U 13006B   21331.49787094  .00000149  00000+0  00000+0 0  9998
2 39079   0.0422 103.7760 0002204 166.6789  21.4141  1.00271861 32131
SBIRS GEO-2 (USA 241)   
1 39120U 13011A   21331.49281227  .00000138  00000+0  00000+0 0  9996
2 39120   1.8736  10.5591 0002224 228.1550  26.0385  1.00272373 31919
EUTELSAT 117 WEST A     
1 39122U 13012A   21331.59541015  .00000004  00000+0  00000+0 0  9996
2 39122   0.0250  34.1502 0002914 213.7585 276.3868  1.00271941 31771
ANIK G1                 
1 39127U 13014A   21331.60223674 -.00000058  00000+0  00000+0 0  9993
2 39127   0.0411 125.1352 0002525  98.7804 312.3437  1.00271421 31576
CHINASAT 11 (ZX 11)     
1 39157U 13020A   21331.58003056 -.00000274  00000+0  00000+0 0  9990
2 39157   0.0171 271.1980 0001414   7.5489  94.6843  1.00269793 31484
EUTELSAT 7B             
1 39163U 13022A   21331.56188916  .00000064  00000+0  00000+0 0  9992
2 39163   0.0683  13.1381 0003364 302.4572 320.3955  1.00270940 31304
WGS F5 (USA 243)        
1 39168U 13024A   21331.36410912 -.00000268  00000+0  00000+0 0  9998
2 39168   0.0139 299.8721 0000270   6.3733 198.8492  1.00268606 30509
SES-6                   
1 39172U 13026A   21331.48060170 -.00000244  00000+0  00000+0 0  9999
2 39172   0.0173 328.5778 0002633 289.5120 301.0656  1.00272079 31054
